STARLINK-36388
1 68037U 26040Y   26092.83335647 -.01898274  00000+0 -25262-1 0  9992
2 68037  97.2849  42.4703 0001710  90.0476 338.8419 15.61333612  6058
